[
    {
        "Altitude(m)": 622205.8907068179,
        "Argument of Periapsis(deg)": 0.0,
        "Eccentricity": 0.0,
        "Inclination(deg)": 60.0,
        "Latitude(deg)": -52.16249949136748,
        "Longitude(deg)": -32.29948399934119,
        "Mean Anomaly(deg)": -114.54549999999999,
        "RAAN(deg)": 200.0,
        "Satellite Name": "Test1 895",
        "Satellite Number": 895,
        "Semi-Major Axis(m)": 6980739.136638005,
        "Time(s)": 0
    },
    {
        "Altitude(m)": 622344.7967036463,
        "Argument of Periapsis(deg)": 0.00010418945913296404,
        "Eccentricity": 0.0,
        "Inclination(deg)": 60.0,
        "Latitude(deg)": -52.520077782024366,
        "Longitude(deg)": -31.51826893257035,
        "Mean Anomaly(deg)": -113.92539385453814,
        "RAAN(deg)": 199.99957995086027,
        "Satellite Name": "Test1 895",
        "Satellite Number": 895,
        "Semi-Major Axis(m)": 6980739.136638005,
        "Time(s)": 10
    },
    {
        "Altitude(m)": 622480.8590369539,
        "Argument of Periapsis(deg)": 0.0002083789182659281,
        "Eccentricity": 0.0,
        "Inclination(deg)": 60.0,
        "Latitude(deg)": -52.87181942844281,
        "Longitude(deg)": -30.723721693141584,
        "Mean Anomaly(deg)": -113.30528770907637,
        "RAAN(deg)": 199.9991599017205,
        "Satellite Name": "Test1 895",
        "Satellite Number": 895,
        "Semi-Major Axis(m)": 6980739.136638005,
        "Time(s)": 20
    },
    {
        "Altitude(m)": 622614.0244756505,
        "Argument of Periapsis(deg)": 0.00031256837739889213,
        "Eccentricity": 0.0,
        "Inclination(deg)": 60.0,
        "Latitude(deg)": -53.21755656882046,
        "Longitude(deg)": -29.915681315534222,
        "Mean Anomaly(deg)": -112.68518156361452,
        "RAAN(deg)": 199.99873985258077,
        "Satellite Name": "Test1 895",
        "Satellite Number": 895,
        "Semi-Major Axis(m)": 6980739.136638005,
        "Time(s)": 30
    },
    {
        "Altitude(m)": 622744.2408988788,
        "Argument of Periapsis(deg)": 0.0004167578365318562,
        "Eccentricity": 0.0,
        "Inclination(deg)": 60.0,
        "Latitude(deg)": -53.557117934484914,
        "Longitude(deg)": -29.093998457758996,
        "Mean Anomaly(deg)": -112.06507541815273,
        "RAAN(deg)": 199.99831980344103,
        "Satellite Name": "Test1 895",
        "Satellite Number": 895,
        "Semi-Major Axis(m)": 6980739.136638005,
        "Time(s)": 40
    },
    {
        "Altitude(m)": 622871.4573182684,
        "Argument of Periapsis(deg)": 0.0005209472956648203,
        "Eccentricity": 0.0,
        "Inclination(deg)": 60.0,
        "Latitude(deg)": -53.89032897266068,
        "Longitude(deg)": -28.258537797875647,
        "Mean Anomaly(deg)": -111.44496927269088,
        "RAAN(deg)": 199.9978997543013,
        "Satellite Name": "Test1 895",
        "Satellite Number": 895,
        "Semi-Major Axis(m)": 6980739.136638005,
        "Time(s)": 50
    },
    {
        "Altitude(m)": 622995.6238996693,
        "Argument of Periapsis(deg)": 0.0006251367547977843,
        "Eccentricity": 0.0,
        "Inclination(deg)": 60.0,
        "Latitude(deg)": -54.217011993219444,
        "Longitude(deg)": -27.409178981240604,
        "Mean Anomaly(deg)": -110.82486312722907,
        "RAAN(deg)": 199.99747970516154,
        "Satellite Name": "Test1 895",
        "Satellite Number": 895,
        "Semi-Major Axis(m)": 6980739.136638005,
        "Time(s)": 60
    },
    {
        "Altitude(m)": 623116.6919843934,
        "Argument of Periapsis(deg)": 0.0007293262139307483,
        "Eccentricity": 0.0,
        "Inclination(deg)": 60.0,
        "Latitude(deg)": -54.53698634103221,
        "Longitude(deg)": -26.54581762699737,
        "Mean Anomaly(deg)": -110.20475698176719,
        "RAAN(deg)": 199.9970596560218,
        "Satellite Name": "Test1 895",
        "Satellite Number": 895,
        "Semi-Major Axis(m)": 6980739.136638005,
        "Time(s)": 70
    },
    {
        "Altitude(m)": 623234.6141099255,
        "Argument of Periapsis(deg)": 0.0008335156730637124,
        "Eccentricity": 0.0,
        "Inclination(deg)": 60.0,
        "Latitude(deg)": -54.85006859549863,
        "Longitude(deg)": -25.66836790103951,
        "Mean Anomaly(deg)": -109.58465083630537,
        "RAAN(deg)": 199.99663960688207,
        "Satellite Name": "Test1 895",
        "Satellite Number": 895,
        "Semi-Major Axis(m)": 6980739.136638005,
        "Time(s)": 80
    },
    {
        "Altitude(m)": 623349.3440301442,
        "Argument of Periapsis(deg)": 0.0009377051321966765,
        "Eccentricity": 0.0,
        "Inclination(deg)": 60.0,
        "Latitude(deg)": -55.15607279875492,
        "Longitude(deg)": -24.77676362264531,
        "Mean Anomaly(deg)": -108.96454469084352,
        "RAAN(deg)": 199.99621955774234,
        "Satellite Name": "Test1 895",
        "Satellite Number": 895,
        "Semi-Major Axis(m)": 6980739.136638005,
        "Time(s)": 90
    },
    {
        "Altitude(m)": 623460.836734964,
        "Argument of Periapsis(deg)": 0.0010418945913296407,
        "Eccentricity": 0.0,
        "Inclination(deg)": 60.0,
        "Latitude(deg)": -55.45481071396894,
        "Longitude(deg)": -23.87095940910319,
        "Mean Anomaly(deg)": -108.3444385453817,
        "RAAN(deg)": 199.99579950860257,
        "Satellite Name": "Test1 895",
        "Satellite Number": 895,
        "Semi-Major Axis(m)": 6980739.136638005,
        "Time(s)": 100
    },
    {
        "Altitude(m)": 623569.0484694924,
        "Argument of Periapsis(deg)": 0.0011460840504626045,
        "Eccentricity": 0.0,
        "Inclination(deg)": 60.0,
        "Latitude(deg)": -55.746092114999406,
        "Longitude(deg)": -22.950933361047394,
        "Mean Anomaly(deg)": -107.7243323999199,
        "RAAN(deg)": 199.99537945946284,
        "Satellite Name": "Test1 895",
        "Satellite Number": 895,
        "Semi-Major Axis(m)": 6980739.136638005,
        "Time(s)": 110
    },
    {
        "Altitude(m)": 623673.9367525832,
        "Argument of Periapsis(deg)": 0.0012502735095955685,
        "Eccentricity": 0.0,
        "Inclination(deg)": 60.0,
        "Latitude(deg)": -56.02972510851848,
        "Longitude(deg)": -22.016688250922076,
        "Mean Anomaly(deg)": -107.10422625445801,
        "RAAN(deg)": 199.9949594103231,
        "Satellite Name": "Test1 895",
        "Satellite Number": 895,
        "Semi-Major Axis(m)": 6980739.136638005,
        "Time(s)": 120
    },
    {
        "Altitude(m)": 623775.4603949124,
        "Argument of Periapsis(deg)": 0.0013544629687285324,
        "Eccentricity": 0.0,
        "Inclination(deg)": 60.0,
        "Latitude(deg)": -56.30551648949609,
        "Longitude(deg)": -21.068252713893955,
        "Mean Anomaly(deg)": -106.48412010899627,
        "RAAN(deg)": 199.9945393611833,
        "Satellite Name": "Test1 895",
        "Satellite Number": 895,
        "Semi-Major Axis(m)": 6980739.136638005,
        "Time(s)": 130
    },
    {
        "Altitude(m)": 623873.579516409,
        "Argument of Periapsis(deg)": 0.0014586524278614966,
        "Eccentricity": 0.0,
        "Inclination(deg)": 60.0,
        "Latitude(deg)": -56.573272130693795,
        "Longitude(deg)": -20.10568393878132,
        "Mean Anomaly(deg)": -105.86401396353438,
        "RAAN(deg)": 199.9941193120436,
        "Satellite Name": "Test1 895",
        "Satellite Number": 895,
        "Semi-Major Axis(m)": 6980739.136638005,
        "Time(s)": 140
    },
    {
        "Altitude(m)": 623968.2555632078,
        "Argument of Periapsis(deg)": 0.0015628418869944607,
        "Eccentricity": 0.0,
        "Inclination(deg)": 60.0,
        "Latitude(deg)": -56.83279740651241,
        "Longitude(deg)": -19.12906881621728,
        "Mean Anomaly(deg)": -105.24390781807257,
        "RAAN(deg)": 199.99369926290387,
        "Satellite Name": "Test1 895",
        "Satellite Number": 895,
        "Semi-Major Axis(m)": 6980739.136638005,
        "Time(s)": 150
    },
    {
        "Altitude(m)": 624059.4513239602,
        "Argument of Periapsis(deg)": 0.0016670313461274247,
        "Eccentricity": 0.0,
        "Inclination(deg)": 60.0,
        "Latitude(deg)": -57.083897651210236,
        "Longitude(deg)": -18.138525038199816,
        "Mean Anomaly(deg)": -104.62380167261075,
        "RAAN(deg)": 199.9932792137641,
        "Satellite Name": "Test1 895",
        "Satellite Number": 895,
        "Semi-Major Axis(m)": 6980739.136638005,
        "Time(s)": 160
    },
    {
        "Altitude(m)": 624147.130945603,
        "Argument of Periapsis(deg)": 0.0017712208052603888,
        "Eccentricity": 0.0,
        "Inclination(deg)": 60.0,
        "Latitude(deg)": -57.32637865112244,
        "Longitude(deg)": -17.13420364161734,
        "Mean Anomaly(deg)": -104.0036955271489,
        "RAAN(deg)": 199.99285916462435,
        "Satellite Name": "Test1 895",
        "Satellite Number": 895,
        "Semi-Major Axis(m)": 6980739.136638005,
        "Time(s)": 170
    },
    {
        "Altitude(m)": 624231.2599485386,
        "Argument of Periapsis(deg)": 0.001875410264393353,
        "Eccentricity": 0.0,
        "Inclination(deg)": 60.0,
        "Latitude(deg)": -57.560047170082385,
        "Longitude(deg)": -16.116289948285754,
        "Mean Anomaly(deg)": -103.38358938168707,
        "RAAN(deg)": 199.99243911548464,
        "Satellite Name": "Test1 895",
        "Satellite Number": 895,
        "Semi-Major Axis(m)": 6980739.136638005,
        "Time(s)": 180
    },
    {
        "Altitude(m)": 624311.8052412309,
        "Argument of Periapsis(deg)": 0.0019795997235263173,
        "Eccentricity": 0.0,
        "Inclination(deg)": 60.0,
        "Latitude(deg)": -57.78471150678725,
        "Longitude(deg)": -15.085004391454055,
        "Mean Anomaly(deg)": -102.76348323622527,
        "RAAN(deg)": 199.9920190663449,
        "Satellite Name": "Test1 895",
        "Satellite Number": 895,
        "Semi-Major Axis(m)": 6980739.136638005,
        "Time(s)": 190
    }
]